[
    {
        "CCSDS_OMM_VERS": "3.0",
        "COMMENT": "GENERATED VIA SPACE-TRACK.ORG API",
        "CREATION_DATE": "2025-05-03T17:28:03",
        "ORIGINATOR": "18 SPCS",
        "OBJECT_NAME": "COSMOS 2476 (GLONASS)",
        "OBJECT_ID": "2011-064A",
        "CENTER_NAME": "EARTH",
        "REF_FRAME": "TEME",
        "TIME_SYSTEM": "UTC",
        "MEAN_ELEMENT_THEORY": "SGP4",
        "EPOCH": "2025-05-03T10:21:36.099648",
        "MEAN_MOTION": "2.13101495",
        "ECCENTRICITY": "0.00238660",
        "INCLINATION": "65.0422",
        "RA_OF_ASC_NODE": "86.7288",
        "ARG_OF_PERICENTER": "241.9820",
        "MEAN_ANOMALY": "212.2280",
        "EPHEMERIS_TYPE": "0",
        "CLASSIFICATION_TYPE": "U",
        "NORAD_CAT_ID": "37867",
        "ELEMENT_SET_NO": "999",
        "REV_AT_EPOCH": "10503",
        "BSTAR": "0.00000000000000",
        "MEAN_MOTION_DOT": "0.00000027",
        "MEAN_MOTION_DDOT": "0.0000000000000",
        "SEMIMAJOR_AXIS": "25508.065",
        "PERIOD": "675.734",
        "APOAPSIS": "19190.807",
        "PERIAPSIS": "19069.052",
        "OBJECT_TYPE": "PAYLOAD",
        "RCS_SIZE": "LARGE",
        "COUNTRY_CODE": "CIS",
        "LAUNCH_DATE": "2011-11-04",
        "SITE": "TTMTR",
        "DECAY_DATE": null,
        "FILE": "4717971",
        "GP_ID": "286759300",
        "TLE_LINE0": "0 COSMOS 2476 (GLONASS)",
        "TLE_LINE1": "1 37867U 11064A   25123.43166782  .00000027  00000-0  00000-0 0  9992",
        "TLE_LINE2": "2 37867  65.0422  86.7288 0023866 241.9820 212.2280  2.13101495105034"
    }
]